OBJECT_NAME,OBJECT_ID,EPOCH,MEAN_MOTION,ECCENTRICITY,INCLINATION,RA_OF_ASC_NODE,ARG_OF_PERICENTER,MEAN_ANOMALY,EPHEMERIS_TYPE,CLASSIFICATION_TYPE,NORAD_CAT_ID,ELEMENT_SET_NO,REV_AT_EPOCH,BSTAR,MEAN_MOTION_DOT,MEAN_MOTION_DDOT
STARLINK-5403,2022-177AU,2026-07-04T06:57:34.831008,15.27570584,.00010661,43.0012,183.0593,270.7206,89.3524,0,U,54862,999,19492,.48033289E-4,.106E-4,0
STARLINK-5405,2022-177AV,2026-07-04T00:48:21.227328,15.27572343,.00006561,42.9999,184.5548,269.3952,90.6824,0,U,54863,999,19488,-.12304626E-4,-.6E-5,0
STARLINK-5359,2022-177AW,2026-07-04T01:19:48.130752,15.27573198,.00014927,43.0038,184.7098,289.8800,70.1890,0,U,54864,999,19488,.56153805E-4,.1283E-4,0
STARLINK-5411,2022-177AX,2026-07-04T06:59:25.778112,15.27574283,.00006441,43.0004,183.0470,304.0217,56.0574,0,U,54865,999,19492,.66286295E-4,.1562E-4,0
STARLINK-5398,2022-177AY,2026-07-04T06:18:44.490816,15.27562106,.00017055,43.0025,182.8367,263.6080,96.4578,0,U,54866,999,19492,.81888866E-4,.1991E-4,0
STARLINK-5396,2022-177AZ,2026-07-04T01:14:15.093312,15.27576962,.00011542,43.0024,184.6829,287.5433,72.5293,0,U,54867,999,19488,.40240012E-4,.845E-5,0
STARLINK-5379,2022-177BA,2026-07-04T06:29:49.125408,15.27576051,.00013352,43.0020,182.8875,264.1370,95.9330,0,U,54868,999,19492,.4699073E-4,.1031E-4,0
STARLINK-5402,2022-177BB,2026-07-04T06:17:04.675488,15.27579019,.00020987,43.0044,183.6860,281.5191,78.5425,0,U,54869,999,19491,.19128742E-4,.264E-5,0
STARLINK-5401,2022-177BC,2026-07-04T06:24:12.610368,15.27417136,.00007228,43.0006,182.8626,180.9588,179.1263,0,U,54870,999,19492,.14949029E-2,.40898E-3,0
STARLINK-5397,2022-177BD,2026-07-04T01:29:03.259392,15.27575176,.00018584,43.0032,184.7600,274.2951,85.7688,0,U,54871,999,19488,.54050643E-4,.1225E-4,0
STARLINK-5091,2022-177BF,2026-07-04T00:59:26.857248,15.27575745,.00011045,43.0013,184.5964,278.0653,82.0073,0,U,54873,999,19488,.4740518E-5,-.132E-5,0
SHIYAN-10 02 (SY-10 02),2022-178A,2026-07-02T14:33:40.836960,2.00621104,.69268938,64.0303,318.8134,267.8651,18.4765,0,U,54878,999,1686,0,.822E-5,0
EROS C3,2022-179A,2026-07-04T06:35:38.200416,15.10960287,.00059389,139.3354,102.5146,92.2310,267.9178,0,U,54880,999,19491,.30504608E-3,.544E-4,0
STAR VIBE,2023-001A,2026-07-04T07:01:37.526880,15.43102191,.00065169,97.3156,249.8302,64.5173,295.6748,0,U,55009,999,19486,.4465313E-3,.19698E-3,0
MENUT,2023-001B,2026-07-04T06:22:09.182784,15.62881679,.00033951,97.3115,253.7409,81.7509,278.4134,0,U,55010,999,19506,.12723196E-2,.116142E-2,0
BRO-8,2023-001C,2026-07-04T06:57:46.914912,15.50147430,.00060308,97.3191,250.7321,75.2300,284.9620,0,U,55011,999,19485,.88417018E-3,.49988E-3,0
CONNECTA T1.2,2023-001D,2026-07-04T03:14:11.402016,15.52097167,.00051158,97.3243,256.1403,49.2021,310.9674,0,U,55012,999,19517,.90893275E-3,.55097E-3,0
BIRKELAND,2023-001G,2026-07-04T07:09:13.529664,15.40386382,.00075372,97.3334,253.3142,55.8416,304.3544,0,U,55015,999,19498,.29021755E-3,.11657E-3,0
LYNK TOWER 4,2023-001AB,2026-07-03T21:12:05.805792,15.33626441,.00096,97.3183,243.6476,67.9660,292.2602,0,U,55034,999,19438,.27199345E-3,.8777E-4,0
SKYKRAFT-1,2023-001AJ,2026-07-04T07:01:06.608640,15.68566398,.00019045,97.3169,263.2786,16.5094,343.6229,0,U,55041,999,19573,.68034295E-3,.77435E-3,0
CONTINUUM-1,2023-001AN,2026-07-04T05:46:27.337152,15.30595886,.00088679,97.3325,248.1273,11.1026,349.0409,0,U,55045,999,19486,.5262957E-3,.15524E-3,0
LYNK TOWER 3,2023-001AP,2026-07-04T03:35:11.880384,15.36701791,.00088945,97.3180,245.3125,66.5271,293.6907,0,U,55046,999,19451,.41925465E-3,.14979E-3,0
NUSAT-33 (ALBANIA-2),2023-001AQ,2026-07-04T07:16:08.064768,15.28110134,.00058569,97.3057,245.8822,0.4896,359.6349,0,U,55047,999,19492,.4596429E-3,.12539E-3,0
NUSAT-35 (WILLIAMINA),2023-001AR,2026-07-04T07:19:42.176928,15.35589052,.00117699,97.1837,237.6206,47.8296,312.3946,0,U,55048,999,19503,.57017279E-3,.19718E-3,0
ICEYE-X21,2023-001AS,2026-06-24T05:11:18.420288,16.24069885,.00123774,97.3001,262.6152,285.9702,74.0225,0,U,55049,999,19475,.602142E-3,.1585954E-1,.2396838E-5
ION SCV-008,2023-001AU,2026-07-04T06:10:11.474400,15.28777212,.00135487,97.5714,281.8631,316.0429,43.9732,0,U,55051,999,19394,.278208E-3,.7724E-4,0
EOSSAT-1,2023-001AW,2026-07-04T02:40:21.634464,15.33763724,.00105736,97.3223,245.5695,62.6015,297.6302,0,U,55053,999,19451,.21402439E-3,.6921E-4,0
SKYKRAFT-1A,2023-001AX,2026-07-03T21:19:41.380896,15.29438914,.00110757,97.3204,242.0025,76.8010,283.4466,0,U,55054,999,19427,.22234519E-3,.6282E-4,0
VIGORIDE-5,2023-001AZ,2026-07-04T04:01:47.716032,15.63262480,.00058394,97.3203,257.2475,119.0431,241.1414,0,U,55056,999,19531,.7439392E-3,.68515E-3,0
ION SCV-007,2023-001BD,2026-07-04T03:04:19.692480,14.77568909,.00109441,97.8997,247.8064,282.4580,77.5405,0,U,55060,999,18875,.81856197E-4,.534E-5,0
