STARLINK-5403           
1 54862U 22177AU  26185.28998647  .00001060  00000+0  48033-4 0  9997
2 54862  43.0012 183.0593 0001066 270.7206  89.3524 15.27570584194923
STARLINK-5405           
1 54863U 22177AV  26185.03357902 -.00000600  00000+0 -12305-4 0  9998
2 54863  42.9999 184.5548 0000656 269.3952  90.6824 15.27572343194886
STARLINK-5359           
1 54864U 22177AW  26185.05541818  .00001283  00000+0  56154-4 0  9998
2 54864  43.0038 184.7098 0001492 289.8800  70.1890 15.27573198194888
STARLINK-5411           
1 54865U 22177AX  26185.29127058  .00001562  00000+0  66286-4 0  9998
2 54865  43.0004 183.0470 0000644 304.0217  56.0574 15.27574283194921
STARLINK-5398           
1 54866U 22177AY  26185.26301494  .00001991  00000+0  81889-4 0  9996
2 54866  43.0025 182.8367 0001705 263.6080  96.4578 15.27562106194927
STARLINK-5396           
1 54867U 22177AZ  26185.05156358  .00000845  00000+0  40240-4 0  9994
2 54867  43.0024 184.6829 0001154 287.5433  72.5293 15.27576962194884
STARLINK-5379           
1 54868U 22177BA  26185.27070747  .00001031  00000+0  46991-4 0  9993
2 54868  43.0020 182.8875 0001335 264.1370  95.9330 15.27576051194929
STARLINK-5402           
1 54869U 22177BB  26185.26185967  .00000264  00000+0  19129-4 0  9994
2 54869  43.0044 183.6860 0002098 281.5191  78.5425 15.27579019194918
STARLINK-5401           
1 54870U 22177BC  26185.26681262  .00040898  00000+0  14949-2 0  9995
2 54870  43.0006 182.8626 0000722 180.9588 179.1263 15.27417136194923
STARLINK-5397           
1 54871U 22177BD  26185.06184328  .00001225  00000+0  54051-4 0  9996
2 54871  43.0032 184.7600 0001858 274.2951  85.7688 15.27575176194885
STARLINK-5091           
1 54873U 22177BF  26185.04128307 -.00000132  00000+0  47405-5 0  9994
2 54873  43.0013 184.5964 0001104 278.0653  82.0073 15.27575745194882
SHIYAN-10 02 (SY-10 02) 
1 54878U 22178A   26183.60672265  .00000822  00000+0  00000+0 0  9996
2 54878  64.0303 318.8134 6926893 267.8651  18.4765  2.00621104 16864
EROS C3                 
1 54880U 22179A   26185.27474769  .00005440  00000+0  30505-3 0  9992
2 54880 139.3354 102.5146 0005938  92.2310 267.9178 15.10960287194919
STAR VIBE               
1 55009U 23001A   26185.29279545  .00019698  00000+0  44653-3 0  9997
2 55009  97.3156 249.8302 0006516  64.5173 295.6748 15.43102191194860
MENUT                   
1 55010U 23001B   26185.26538406  .00116142  00000+0  12723-2 0  9994
2 55010  97.3115 253.7409 0003395  81.7509 278.4134 15.62881679195062
BRO-8                   
1 55011U 23001C   26185.29012633  .00049988  00000+0  88417-3 0  9994
2 55011  97.3191 250.7321 0006030  75.2300 284.9620 15.50147430194858
CONNECTA T1.2           
1 55012U 23001D   26185.13485419  .00055097  00000+0  90893-3 0  9993
2 55012  97.3243 256.1403 0005115  49.2021 310.9674 15.52097167195170
BIRKELAND               
1 55015U 23001G   26185.29807326  .00011657  00000+0  29022-3 0  9998
2 55015  97.3334 253.3142 0007537  55.8416 304.3544 15.40386382194982
LYNK TOWER 4            
1 55034U 23001AB  26184.88340053  .00008777  00000+0  27199-3 0  9994
2 55034  97.3183 243.6476 0009600  67.9660 292.2602 15.33626441194384
SKYKRAFT-1              
1 55041U 23001AJ  26185.29243760  .00077435  00000+0  68034-3 0  9995
2 55041  97.3169 263.2786 0001904  16.5094 343.6229 15.68566398195736
CONTINUUM-1             
1 55045U 23001AN  26185.24059418  .00015524  00000+0  52630-3 0  9995
2 55045  97.3325 248.1273 0008867  11.1026 349.0409 15.30595886194864
LYNK TOWER 3            
1 55046U 23001AP  26185.14944306  .00014979  00000+0  41925-3 0  9992
2 55046  97.3180 245.3125 0008894  66.5271 293.6907 15.36701791194514
NUSAT-33 (ALBANIA-2)    
1 55047U 23001AQ  26185.30287112  .00012539  00000+0  45964-3 0  9993
2 55047  97.3057 245.8822 0005856   0.4896 359.6349 15.28110134194926
NUSAT-35 (WILLIAMINA)   
1 55048U 23001AR  26185.30534927  .00019718  00000+0  57017-3 0  9991
2 55048  97.1837 237.6206 0011769  47.8296 312.3946 15.35589052195034
ICEYE-X21               
1 55049U 23001AS  26175.21618542  .01585954  23968-5  60214-3 0  9995
2 55049  97.3001 262.6152 0012377 285.9702  74.0225 16.24069885194757
ION SCV-008             
1 55051U 23001AU  26185.25707725  .00007724  00000+0  27821-3 0  9991
2 55051  97.5714 281.8631 0013548 316.0429  43.9732 15.28777212193942
EOSSAT-1                
1 55053U 23001AW  26185.11136151  .00006921  00000+0  21402-3 0  9994
2 55053  97.3223 245.5695 0010573  62.6015 297.6302 15.33763724194518
SKYKRAFT-1A             
1 55054U 23001AX  26184.88867339  .00006282  00000+0  22235-3 0  9992
2 55054  97.3204 242.0025 0011075  76.8010 283.4466 15.29438914194279
VIGORIDE-5              
1 55056U 23001AZ  26185.16791338  .00068515  00000+0  74394-3 0  9991
2 55056  97.3203 257.2475 0005839 119.0431 241.1414 15.63262480195316
ION SCV-007             
1 55060U 23001BD  26185.12800570  .00000534  00000+0  81856-4 0  9990
2 55060  97.8997 247.8064 0010944 282.4580  77.5405 14.77568909188758
